COMMENT,ORIGINATOR,NORAD_CAT_ID,OBJECT_NAME,OBJECT_TYPE,CLASSIFICATION_TYPE,INTLDES,EPOCH,EPOCH_MICROSECONDS,MEAN_MOTION,ECCENTRICITY,INCLINATION,RA_OF_ASC_NODE,ARG_OF_PERICENTER,MEAN_ANOMALY,EPHEMERIS_TYPE,ELEMENT_SET_NO,REV_AT_EPOCH,BSTAR,MEAN_MOTION_DOT,MEAN_MOTION_DDOT,FILE,TLE_LINE0,TLE_LINE1,TLE_LINE2,OBJECT_ID,OBJECT_NUMBER,SEMIMAJOR_AXIS,PERIOD,APOGEE,PERIGEE
"GENERATED VIA SPACETRACK.ORG API","JSPOC","39216","INSAT 3D","PAYLOAD","U","13038B","2016-01-13 11:02:09","177216","1.00269769","0.0001658","0.1257","263.3392","24.8857","71.746","0","999","912","0","-1.58e-06","0","1980243","0 INSAT 3D","1 39216U 13038B   16013.45982844 -.00000158  00000-0  00000+0 0  9995","2 39216   0.1257 263.3392 0001658  24.8857  71.7460  1.00269769  9127","2013-038B","39216","42165.297","1436.125","35794.153","35780.171"
"GENERATED VIA SPACETRACK.ORG API","JSPOC","31132","CP4","PAYLOAD","U","07012Q","2016-01-13 11:02:13","533504","14.58517914","0.0080648","97.9582","342.8078","329.7936","29.8627","0","999","46453","0.00016135","7.36e-06","0","1979848","0 CP4","1 31132U 07012Q   16013.45987886  .00000736  00000-0  16135-3 0  9991","2 31132  97.9582 342.8078 0080648 329.7936  29.8627 14.58517914464530","2007-012Q","31132","7076.100","98.730","755.032","640.898"
"GENERATED VIA SPACETRACK.ORG API","JSPOC","39216","INSAT 3D","PAYLOAD","U","13038B","2016-01-13 11:02:16","203264","1.00270517","0.0001399","0.015","334.9936","308.4341","76.5567","0","999","912","0","-1.58e-06","0","1979846","0 INSAT 3D","1 39216U 13038B   16013.45990976 -.00000158  00000-0  00000+0 0  9990","2 39216   0.0150 334.9936 0001399 308.4341  76.5567  1.00270517  9122","2013-038B","39216","42165.087","1436.115","35792.851","35781.053"
"GENERATED VIA SPACETRACK.ORG API","JSPOC","39624","SJ-11-06","PAYLOAD","U","14014A","2016-01-13 11:02:48","613632","14.59748514","0.0012143","98.1719","71.0423","352.8312","7.2716","0","999","9529","5.2805e-05","2.06e-06","0","1979810","0 SJ-11-06","1 39624U 14014A   16013.46028488  .00000206  00000-0  52805-4 0  9997","2 39624  98.1719  71.0423 0012143 352.8312   7.2716 14.59748514 95299","2014-014A","39624","7072.123","98.647","702.575","685.400"
"GENERATED VIA SPACETRACK.ORG API","JSPOC","4047","OPS 1127 (DMSP 4B F3)","PAYLOAD","U","69062A","2016-01-13 11:03:00","914400","14.28521561","0.0043817","98.8392","197.1347","235.2633","124.4418","0","999","41801","4.2029e-05","6e-07","0","1979846","0 OPS 1127 (DMSP 4B F3)","1 04047U 69062A   16013.46042725  .00000060  00000-0  42029-4 0  9996","2 04047  98.8392 197.1347 0043817 235.2633 124.4418 14.28521561418018","1969-062A","4047","7174.813","100.803","828.116","765.241"
"GENERATED VIA SPACETRACK.ORG API","JSPOC","28925","BREEZE-M R/B","ROCKET BODY","U","05052B","2016-01-13 11:03:00","339840","1.9415244","0.5366688","19.3046","59.3814","89.7494","359.6766","0","999","7113","0","-2.45e-06","0","1980270","0 BREEZE-M R/B","1 28925U 05052B   16013.46042060 -.00000245 +00000-0 +00000-0 0  9993","2 28925 019.3046 059.3814 5366688 089.7494 359.6766 01.94152440071138","2005-052B","28925","27141.880","741.685","35329.946","6197.545"
"GENERATED VIA SPACETRACK.ORG API","JSPOC","25651","GLOBALSTAR M046","PAYLOAD","U","99012C","2016-01-13 11:03:24","71328","12.09319737","0.0002274","52.0071","4.6257","203.7377","324.8992","0","999","76746","0.0003665","-5.5e-07","0","1979849","0 GLOBALSTAR M046","1 25651U 99012C   16013.46069527 -.00000055  00000-0  36650-3 0  9994","2 25651  52.0071   4.6257 0002274 203.7377 324.8992 12.09319737767463","1999-012C","25651","8017.538","119.075","1641.227","1637.580"
"GENERATED VIA SPACETRACK.ORG API","JSPOC","25875","GLOBALSTAR M028","PAYLOAD","U","99041D","2016-01-13 11:03:24","518016","12.50467159","0.0063593","51.9641","17.3625","156.7958","203.5795","0","999","75944","-0.00025217","-1.39e-06","0","1980270","0 GLOBALSTAR M028","1 25875U 99041D   16013.46070044 -.00000139 +00000-0 -25217-3 0  9991","2 25875 051.9641 017.3625 0063593 156.7958 203.5795 12.50467159759446","1999-041D","25875","7840.678","115.156","1512.404","1412.682"
"GENERATED VIA SPACETRACK.ORG API","JSPOC","33433","SHIYUAN 3 (SY-3)","PAYLOAD","U","08056A","2016-01-13 11:04:03","334944","14.29586884","0.0014224","98.5871","3.9594","136.7247","223.5057","0","999","37502","3.8132e-05","5.4e-07","0","1979846","0 SHIYUAN 3 (SY-3)","1 33433U 08056A   16013.46114971  .00000054  00000-0  38132-4 0  9999","2 33433  98.5871   3.9594 0014224 136.7247 223.5057 14.29586884375025","2008-056A","33433","7171.249","100.728","803.314","782.913"
"GENERATED VIA SPACETRACK.ORG API","JSPOC","4579","SL-8 R/B","ROCKET BODY","U","70083B","2016-01-13 11:04:08","760864","14.60228647","0.0009837","74.0029","7.9157","154.1877","205.9781","0","999","39876","5.5526e-05","2.38e-06","0","1979849","0 SL-8 R/B","1 04579U 70083B   16013.46121251  .00000238  00000-0  55526-4 0  9996","2 04579  74.0029   7.9157 0009837 154.1877 205.9781 14.60228647398763","1970-083B","4579","7070.572","98.614","699.393","685.482"
"GENERATED VIA SPACETRACK.ORG API","JSPOC","39485","COSMOS 2490","PAYLOAD","U","13076C","2016-01-13 11:04:29","229888","12.42871128","0.0022556","82.4817","21.6445","129.1437","231.1657","0","999","9307","0","1e-07","0","1979846","0 COSMOS 2490","1 39485U 13076C   16013.46144942  .00000010  00000-0  00000+0 0  9991","2 39485  82.4817  21.6445 0022556 129.1437 231.1657 12.42871128 93070","2013-076C","39485","7872.592","115.860","1512.214","1476.700"
"GENERATED VIA SPACETRACK.ORG API","JSPOC","29000","SCATHA AKM","ROCKET BODY","U","79007C","2016-01-13 11:04:54","50016","1.01586898","0.17735","17.5855","334.7401","8.7484","127.1651","0","999","926","0","2.8e-07","0","1980270","0 SCATHA AKM","1 29000U 79007C   16013.46173669 +.00000028 +00000-0 +00000-0 0  9997","2 29000 017.5855 334.7401 1773500 008.7484 127.1651 01.01586898009266","1979-007C","29000","41800.041","1417.505","42835.143","28008.668"
"GENERATED VIA SPACETRACK.ORG API","JSPOC","29051","FORMOSAT 3E","PAYLOAD","U","06011E","2016-01-13 11:05:01","798368","14.28432815","0.0069243","72.0058","149.7964","202.1128","157.7019","0","999","51125","0.00010815","2.36e-06","0","1979822","0 FORMOSAT 3E","1 29051U 06011E   16013.46182637  .00000236  00000-0  10815-3 0  9992","2 29051  72.0058 149.7964 0069243 202.1128 157.7019 14.28432815511253","2006-011E","29051","7175.111","100.809","846.658","747.293"
"GENERATED VIA SPACETRACK.ORG API","JSPOC","37235","CZ-3A R/B","ROCKET BODY","U","10064B","2016-01-13 11:05:07","188000","3.31133522","0.6536357","24.2121","179.8812","178.9195","184.015","0","999","4778","0.0012696","0.00022173","0","1979846","0 CZ-3A R/B","1 37235U 10064B   16013.46188875  .00022173  00000-0  12696-2 0  9990","2 37235  24.2121 179.8812 6536357 178.9195 184.0150  3.31133522 47783","2010-064B","37235","19013.690","434.869","25063.581","207.528"
"GENERATED VIA SPACETRACK.ORG API","JSPOC","37235","CZ-3A R/B","ROCKET BODY","U","10064B","2016-01-13 11:05:07","346976","3.3113414","0.6536342","24.2123","179.8816","178.9184","184.0185","0","999","4785","0.0011855","0.00020685","0","1980270","0 CZ-3A R/B","1 37235U 10064B   16013.46189059 +.00020685 +00000-0 +11855-2 0  9997","2 37235 024.2123 179.8816 6536342 178.9184 184.0185 03.31134140047854","2010-064B","37235","19013.666","434.869","25063.513","207.548"
"GENERATED VIA SPACETRACK.ORG API","JSPOC","21103","COSMOS 2128","PAYLOAD","U","91009D","2016-01-13 11:05:22","746912","12.51869905","0.0014066","74.032","295.813","59.8554","300.389","0","999","13891","0.00014368","7e-08","0","1979841","0 COSMOS 2128","1 21103U 91009D   16013.46206883  .00000007  00000-0  14368-3 0  9996","2 21103  74.0320 295.8130 0014066  59.8554 300.3890 12.51869905138917","1991-009D","21103","7834.820","115.027","1467.705","1445.664"
"GENERATED VIA SPACETRACK.ORG API","JSPOC","33065","ORBCOMM FM 40","PAYLOAD","U","08031F","2016-01-13 11:05:30","60672","14.72673715","0.0007583","48.4464","359.1117","125.6915","15.3196","0","999","40610","0.00011165","5.18e-06","0","1980270","0 ORBCOMM FM 40","1 33065U 08031F   16013.46215348 +.00000518 +00000-0 +11165-3 0  9994","2 33065 048.4464 359.1117 0007583 125.6915 015.3196 14.72673715406107","2008-031F","33065","7030.682","97.781","657.878","647.216"
"GENERATED VIA SPACETRACK.ORG API","JSPOC","21223","ARIANE 44P R/B","ROCKET BODY","U","91026B","2016-01-13 11:05:38","328288","2.30730618","0.7185258","4.14","329.3553","176.4408","195.571","0","999","18466","0.00028552","-7e-08","0","1980270","0 ARIANE 44P R/B","1 21223U 91026B   16013.46224917 -.00000007 +00000-0 +28552-3 0  9997","2 21223 004.1400 329.3553 7185258 176.4408 195.5710 02.30730618184660","1991-026B","21223","24191.623","624.104","35195.794","431.182"
"GENERATED VIA SPACETRACK.ORG API","JSPOC","6392","METEOR 1-14","PAYLOAD","U","73015A","2016-01-13 11:05:42","653472","14.07521787","0.0011173","81.2445","21.6842","254.317","105.6767","0","999","19721","4.6896e-06","2e-07","0","1979846","0 METEOR 1-14","1 06392U 73015A   16013.46229923  .00000020  00000-0  46896-5 0  9994","2 06392  81.2445  21.6842 0011173 254.3170 105.6767 14.07521787197218","1973-015A","6392","7246.001","102.307","875.962","859.770"
"GENERATED VIA SPACETRACK.ORG API","JSPOC","40014","BUGSAT 1","PAYLOAD","U","14033E","2016-01-13 11:06:28","321056","14.94019698","0.0030995","97.9579","285.4854","251.417","108.3658","0","999","8543","0.00014945","1.547e-05","0","1979846","0 BUGSAT 1","1 40014U 14033E   16013.46282779  .00001547  00000-0  14945-3 0  9999","2 40014  97.9579 285.4854 0030995 251.4170 108.3658 14.94019698 85431","2014-033E","40014","6963.554","96.384","607.002","563.835"
